CCSDS_OMM_VERS = 2.0
CREATION_DATE  = 
ORIGINATOR     = 

OBJECT_NAME    = IDEFIX & ARIANE 42P R/B
OBJECT_ID      = 2002-021B
CENTER_NAME    = EARTH
REF_FRAME      = TEME
TIME_SYSTEM    = UTC
MEAN_ELEMENT_THEORY = SGP/SGP4

EPOCH          = 2026-01-03T21:19:44.856768
MEAN_MOTION    = 14.30970661
ECCENTRICITY   = .00123019
INCLINATION    = 98.5809
RA_OF_ASC_NODE = 303.2949
ARG_OF_PERICENTER = 23.0355
MEAN_ANOMALY   = 337.1377

EPHEMERIS_TYPE = 0
CLASSIFICATION_TYPE = U
NORAD_CAT_ID   = 27422
ELEMENT_SET_NO = 999
REV_AT_EPOCH   = 23475
BSTAR          = .22445384E-3
MEAN_MOTION_DOT = .547E-5
MEAN_MOTION_DDOT = 0

CCSDS_OMM_VERS = 2.0
CREATION_DATE  = 
ORIGINATOR     = 

OBJECT_NAME    = AQUA
OBJECT_ID      = 2002-022A
CENTER_NAME    = EARTH
REF_FRAME      = TEME
TIME_SYSTEM    = UTC
MEAN_ELEMENT_THEORY = SGP/SGP4

EPOCH          = 2026-01-03T22:31:10.390944
MEAN_MOTION    = 14.61796291
ECCENTRICITY   = .00020026
INCLINATION    = 98.4067
RA_OF_ASC_NODE = 330.1809
ARG_OF_PERICENTER = 92.1714
MEAN_ANOMALY   = 343.8415

EPHEMERIS_TYPE = 0
CLASSIFICATION_TYPE = U
NORAD_CAT_ID   = 27424
ELEMENT_SET_NO = 999
REV_AT_EPOCH   = 25927
BSTAR          = .39553427E-3
MEAN_MOTION_DOT = .1925E-4
MEAN_MOTION_DDOT = 0

CCSDS_OMM_VERS = 2.0
CREATION_DATE  = 
ORIGINATOR     = 

OBJECT_NAME    = CZ-4B R/B
OBJECT_ID      = 2002-024C
CENTER_NAME    = EARTH
REF_FRAME      = TEME
TIME_SYSTEM    = UTC
MEAN_ELEMENT_THEORY = SGP/SGP4

EPOCH          = 2026-01-03T23:57:40.483008
MEAN_MOTION    = 14.14533528
ECCENTRICITY   = .00497853
INCLINATION    = 98.8964
RA_OF_ASC_NODE = 57.6889
ARG_OF_PERICENTER = 205.8427
MEAN_ANOMALY   = 219.2540

EPHEMERIS_TYPE = 0
CLASSIFICATION_TYPE = U
NORAD_CAT_ID   = 27432
ELEMENT_SET_NO = 999
REV_AT_EPOCH   = 22009
BSTAR          = .88833371E-4
MEAN_MOTION_DOT = .128E-5
MEAN_MOTION_DDOT = 0

CCSDS_OMM_VERS = 2.0
CREATION_DATE  = 
ORIGINATOR     = 

OBJECT_NAME    = MIDORI II (ADEOS-II)
OBJECT_ID      = 2002-056A
CENTER_NAME    = EARTH
REF_FRAME      = TEME
TIME_SYSTEM    = UTC
MEAN_ELEMENT_THEORY = SGP/SGP4

EPOCH          = 2026-01-03T21:47:33.231264
MEAN_MOTION    = 14.29226528
ECCENTRICITY   = .00012396
INCLINATION    = 98.7663
RA_OF_ASC_NODE = 321.9841
ARG_OF_PERICENTER = 135.6771
MEAN_ANOMALY   = 224.4510

EPHEMERIS_TYPE = 0
CLASSIFICATION_TYPE = U
NORAD_CAT_ID   = 27597
ELEMENT_SET_NO = 999
REV_AT_EPOCH   = 20104
BSTAR          = .25783897E-3
MEAN_MOTION_DOT = .61E-5
MEAN_MOTION_DDOT = 0

CCSDS_OMM_VERS = 2.0
CREATION_DATE  = 
ORIGINATOR     = 

OBJECT_NAME    = H-2A R/B
OBJECT_ID      = 2002-056E
CENTER_NAME    = EARTH
REF_FRAME      = TEME
TIME_SYSTEM    = UTC
MEAN_ELEMENT_THEORY = SGP/SGP4

EPOCH          = 2026-01-03T20:58:40.148256
MEAN_MOTION    = 14.33701563
ECCENTRICITY   = .00703243
INCLINATION    = 98.3093
RA_OF_ASC_NODE = 326.7533
ARG_OF_PERICENTER = 355.7096
MEAN_ANOMALY   = 65.5379

EPHEMERIS_TYPE = 0
CLASSIFICATION_TYPE = U
NORAD_CAT_ID   = 27601
ELEMENT_SET_NO = 999
REV_AT_EPOCH   = 20482
BSTAR          = .27715061E-3
MEAN_MOTION_DOT = .749E-5
MEAN_MOTION_DDOT = 0

CCSDS_OMM_VERS = 2.0
CREATION_DATE  = 
ORIGINATOR     = 

OBJECT_NAME    = CZ-4B R/B
OBJECT_ID      = 2003-049C
CENTER_NAME    = EARTH
REF_FRAME      = TEME
TIME_SYSTEM    = UTC
MEAN_ELEMENT_THEORY = SGP/SGP4

EPOCH          = 2026-01-03T22:43:11.072352
MEAN_MOTION    = 14.54936581
ECCENTRICITY   = .00492817
INCLINATION    = 98.6803
RA_OF_ASC_NODE = 356.3514
ARG_OF_PERICENTER = 69.7023
MEAN_ANOMALY   = 290.9460

EPHEMERIS_TYPE = 0
CLASSIFICATION_TYPE = U
NORAD_CAT_ID   = 28059
ELEMENT_SET_NO = 999
REV_AT_EPOCH   = 17718
BSTAR          = .19275739E-3
MEAN_MOTION_DOT = .791E-5
MEAN_MOTION_DDOT = 0

CCSDS_OMM_VERS = 2.0
CREATION_DATE  = 
ORIGINATOR     = 

OBJECT_NAME    = CZ-2C R/B
OBJECT_ID      = 2004-012C
CENTER_NAME    = EARTH
REF_FRAME      = TEME
TIME_SYSTEM    = UTC
MEAN_ELEMENT_THEORY = SGP/SGP4

EPOCH          = 2026-01-03T17:28:11.092224
MEAN_MOTION    = 15.57474006
ECCENTRICITY   = .00166258
INCLINATION    = 97.7375
RA_OF_ASC_NODE = 63.1909
ARG_OF_PERICENTER = 186.1922
MEAN_ANOMALY   = 173.9130

EPHEMERIS_TYPE = 0
CLASSIFICATION_TYPE = U
NORAD_CAT_ID   = 28222
ELEMENT_SET_NO = 999
REV_AT_EPOCH   = 19414
BSTAR          = .70373965E-3
MEAN_MOTION_DOT = .52153E-3
MEAN_MOTION_DDOT = 0

CCSDS_OMM_VERS = 2.0
CREATION_DATE  = 
ORIGINATOR     = 

OBJECT_NAME    = SL-16 R/B
OBJECT_ID      = 2004-021B
CENTER_NAME    = EARTH
REF_FRAME      = TEME
TIME_SYSTEM    = UTC
MEAN_ELEMENT_THEORY = SGP/SGP4

EPOCH          = 2026-01-03T23:12:25.669728
MEAN_MOTION    = 14.14587503
ECCENTRICITY   = .00039301
INCLINATION    = 71.0015
RA_OF_ASC_NODE = 8.3187
ARG_OF_PERICENTER = 163.0433
MEAN_ANOMALY   = 197.0822

EPHEMERIS_TYPE = 0
CLASSIFICATION_TYPE = U
NORAD_CAT_ID   = 28353
ELEMENT_SET_NO = 999
REV_AT_EPOCH   = 11368
BSTAR          = .2347447E-3
MEAN_MOTION_DOT = .403E-5
MEAN_MOTION_DDOT = 0

CCSDS_OMM_VERS = 2.0
CREATION_DATE  = 
ORIGINATOR     = 

OBJECT_NAME    = CZ-4B R/B
OBJECT_ID      = 2004-035C
CENTER_NAME    = EARTH
REF_FRAME      = TEME
TIME_SYSTEM    = UTC
MEAN_ELEMENT_THEORY = SGP/SGP4

EPOCH          = 2026-01-03T15:17:15.685440
MEAN_MOTION    = 15.27803510
ECCENTRICITY   = .0032443
INCLINATION    = 97.3576
RA_OF_ASC_NODE = 38.6913
ARG_OF_PERICENTER = 196.6935
MEAN_ANOMALY   = 163.3239

EPHEMERIS_TYPE = 0
CLASSIFICATION_TYPE = U
NORAD_CAT_ID   = 28415
ELEMENT_SET_NO = 999
REV_AT_EPOCH   = 16997
BSTAR          = .48506691E-3
MEAN_MOTION_DOT = .13311E-3
MEAN_MOTION_DDOT = 0

CCSDS_OMM_VERS = 2.0
CREATION_DATE  = 
ORIGINATOR     = 

OBJECT_NAME    = CZ-2C R/B
OBJECT_ID      = 2004-046B
CENTER_NAME    = EARTH
REF_FRAME      = TEME
TIME_SYSTEM    = UTC
MEAN_ELEMENT_THEORY = SGP/SGP4

EPOCH          = 2026-01-03T16:42:01.207584
MEAN_MOTION    = 14.26958652
ECCENTRICITY   = .01393064
INCLINATION    = 98.1998
RA_OF_ASC_NODE = 282.7108
ARG_OF_PERICENTER = 347.5640
MEAN_ANOMALY   = 12.2116

EPHEMERIS_TYPE = 0
CLASSIFICATION_TYPE = U
NORAD_CAT_ID   = 28480
ELEMENT_SET_NO = 999
REV_AT_EPOCH   = 9923
BSTAR          = .22109758E-3
MEAN_MOTION_DOT = .554E-5
MEAN_MOTION_DDOT = 0

CCSDS_OMM_VERS = 2.0
CREATION_DATE  = 
ORIGINATOR     = 

OBJECT_NAME    = ARIANE 5 R/B
OBJECT_ID      = 2004-049H
CENTER_NAME    = EARTH
REF_FRAME      = TEME
TIME_SYSTEM    = UTC
MEAN_ELEMENT_THEORY = SGP/SGP4

EPOCH          = 2026-01-03T22:55:20.867232
MEAN_MOTION    = 14.85088653
ECCENTRICITY   = .00839822
INCLINATION    = 98.2529
RA_OF_ASC_NODE = 170.0359
ARG_OF_PERICENTER = 200.1743
MEAN_ANOMALY   = 159.6145

EPHEMERIS_TYPE = 0
CLASSIFICATION_TYPE = U
NORAD_CAT_ID   = 28499
ELEMENT_SET_NO = 999
REV_AT_EPOCH   = 13618
BSTAR          = .25549181E-3
MEAN_MOTION_DOT = .2262E-4
MEAN_MOTION_DDOT = 0

CCSDS_OMM_VERS = 2.0
CREATION_DATE  = 
ORIGINATOR     = 

OBJECT_NAME    = CZ-2D R/B
OBJECT_ID      = 2005-024B
CENTER_NAME    = EARTH
REF_FRAME      = TEME
TIME_SYSTEM    = UTC
MEAN_ELEMENT_THEORY = SGP/SGP4

EPOCH          = 2026-01-04T00:05:03.749568
MEAN_MOTION    = 15.54752201
ECCENTRICITY   = .0003032
INCLINATION    = 97.3615
RA_OF_ASC_NODE = 17.0554
ARG_OF_PERICENTER = 250.9020
MEAN_ANOMALY   = 109.1906

EPHEMERIS_TYPE = 0
CLASSIFICATION_TYPE = U
NORAD_CAT_ID   = 28738
ELEMENT_SET_NO = 999
REV_AT_EPOCH   = 12971
BSTAR          = .6667171E-3
MEAN_MOTION_DOT = .44379E-3
MEAN_MOTION_DDOT = 0

