IDEFIX & ARIANE 42P R/B 
1 27422U 02021B   26003.88871362  .00000547  00000+0  22445-3 0  9991
2 27422  98.5809 303.2949 0012301  23.0355 337.1377 14.30970661234752
AQUA                    
1 27424U 02022A   26003.93831471  .00001925  00000+0  39553-3 0  9996
2 27424  98.4067 330.1809 0002002  92.1714 343.8415 14.61796291259276
CZ-4B R/B               
1 27432U 02024C   26003.99838522  .00000128  00000+0  88833-4 0  9997
2 27432  98.8964  57.6889 0049785 205.8427 219.2540 14.14533528220090
MIDORI II (ADEOS-II)    
1 27597U 02056A   26003.90802351  .00000610  00000+0  25784-3 0  9997
2 27597  98.7663 321.9841 0001239 135.6771 224.4510 14.29226528201040
H-2A R/B                
1 27601U 02056E   26003.87407579  .00000749  00000+0  27715-3 0  9991
2 27601  98.3093 326.7533 0070324 355.7096  65.5379 14.33701563204824
CZ-4B R/B               
1 28059U 03049C   26003.94665593  .00000791  00000+0  19276-3 0  9992
2 28059  98.6803 356.3514 0049281  69.7023 290.9460 14.54936581177188
CZ-2C R/B               
1 28222U 04012C   26003.72790616  .00052153  00000+0  70374-3 0  9991
2 28222  97.7375  63.1909 0016625 186.1922 173.9130 15.57474006194145
SL-16 R/B               
1 28353U 04021B   26003.96696377  .00000403  00000+0  23474-3 0  9991
2 28353  71.0015   8.3187 0003930 163.0433 197.0822 14.14587503113685
CZ-4B R/B               
1 28415U 04035C   26003.63698710  .00013311  00000+0  48507-3 0  9998
2 28415  97.3576  38.6913 0032443 196.6935 163.3239 15.27803510169975
CZ-2C R/B               
1 28480U 04046B   26003.69584731  .00000554  00000+0  22110-3 0  9992
2 28480  98.1998 282.7108 0139306 347.5640  12.2116 14.26958652 99231
ARIANE 5 R/B            
1 28499U 04049H   26003.95510263  .00002262  00000+0  25549-3 0  9990
2 28499  98.2529 170.0359 0083982 200.1743 159.6145 14.85088653136189
CZ-2D R/B               
1 28738U 05024B   26004.00351562  .00044379  00000+0  66672-3 0  9999
2 28738  97.3615  17.0554 0003032 250.9020 109.1906 15.54752201129717
